start=new Date('2021-11-11T00:00:00.000Z').valueOf();
sats=[{"COUNTRY_CODE":"US","OBJECT_ID":"2021-041AR","TLE_LINE2":"2 48592  53.0566  34.3559 0001340  69.7246 290.3887 15.06411130 26924","MEAN_MOTION":"15.06411130","EPOCH":"2021-11-10T17:25:00.169824","LAUNCH_DATE":"2021-05-15","MEAN_ELEMENT_THEORY":"SGP4","OBJECT_TYPE":"PAYLOAD","REV_AT_EPOCH":"2692","TLE_LINE1":"1 48592U 21041AR  21314.72569641  .00000516  00000-0  53539-4 0  9998","SITE":"AFETR","APOAPSIS":"548.107","DECAY_DATE":null,"EPHEMERIS_TYPE":"0","RA_OF_ASC_NODE":"34.3559","TIME_SYSTEM":"UTC","GP_ID":"189425904","PERIAPSIS":"546.251","CENTER_NAME":"EARTH","MEAN_MOTION_DOT":"0.00000516","MEAN_MOTION_DDOT":"0.0000000000000","ECCENTRICITY":"0.00013400","ARG_OF_PERICENTER":"69.7246","OBJECT_NAME":"STARLINK-2249","PERIOD":"95.591","ELEMENT_SET_NO":"999","MEAN_ANOMALY":"290.3887","INCLINATION":"53.0566","NORAD_CAT_ID":"48592","RCS_SIZE":"MEDIUM","SEMIMAJOR_AXIS":"6925.314","BSTAR":"0.00005353900000","FILE":"3211038","REF_FRAME":"TEME","CLASSIFICATION_TYPE":"U"},{"MEAN_ELEMENT_THEORY":"SGP4","EPOCH":"2021-11-10T14:24:31.866048","LAUNCH_DATE":"2021-05-15","TLE_LINE2":"2 48593  53.0556  34.9112 0001020  85.1823 274.9283 15.06408990 27203","MEAN_MOTION":"15.06408990","OBJECT_ID":"2021-041AS","COUNTRY_CODE":"US","SITE":"AFETR","OBJECT_TYPE":"PAYLOAD","REV_AT_EPOCH":"2720","TLE_LINE1":"1 48593U 21041AS  21314.60036882  .00000018  00000-0  20122-4 0  9991","RA_OF_ASC_NODE":"34.9112","EPHEMERIS_TYPE":"0","APOAPSIS":"547.892","DECAY_DATE":null,"MEAN_MOTION_DDOT":"0.0000000000000","GP_ID":"189402502","PERIAPSIS":"546.480","MEAN_MOTION_DOT":"0.00000018","CENTER_NAME":"EARTH","TIME_SYSTEM":"UTC","ARG_OF_PERICENTER":"85.1823","ECCENTRICITY":"0.00010200","SEMIMAJOR_AXIS":"6925.321","NORAD_CAT_ID":"48593","INCLINATION":"53.0556","RCS_SIZE":"LARGE","MEAN_ANOMALY":"274.9283","OBJECT_NAME":"STARLINK-2250","PERIOD":"95.592","ELEMENT_SET_NO":"999","REF_FRAME":"TEME","CLASSIFICATION_TYPE":"U","FILE":"3210992","BSTAR":"0.00002012200000"},{"RA_OF_ASC_NODE":"2.7487","APOAPSIS":"550.820","DECAY_DATE":null,"EPHEMERIS_TYPE":"0","OBJECT_TYPE":"PAYLOAD","REV_AT_EPOCH":"357","TLE_LINE1":"1 48594U 21041AT  21314.91667824 -.00019255  00000-0 -13059-2 0  9996","SITE":"AFETR","EPOCH":"2021-11-10T22:00:00.999936","LAUNCH_DATE":"2021-05-15","MEAN_ELEMENT_THEORY":"SGP4","COUNTRY_CODE":"US","OBJECT_ID":"2021-041AT","TLE_LINE2":"2 48594  53.0553   2.7487 0001579  63.1023 123.6793 15.05580510  3574","MEAN_MOTION":"15.05580510","FILE":"3211038","REF_FRAME":"TEME","CLASSIFICATION_TYPE":"U","BSTAR":"-0.00130590000000","INCLINATION":"53.0553","NORAD_CAT_ID":"48594","RCS_SIZE":"LARGE","SEMIMAJOR_AXIS":"6927.861","OBJECT_NAME":"STARLINK-2251","ELEMENT_SET_NO":"999","PERIOD":"95.644","MEAN_ANOMALY":"123.6793","ARG_OF_PERICENTER":"63.1023","ECCENTRICITY":"0.00015790","GP_ID":"189425721","PERIAPSIS":"548.632","CENTER_NAME":"EARTH","MEAN_MOTION_DOT":"-0.00019255","MEAN_MOTION_DDOT":"0.0000000000000","TIME_SYSTEM":"UTC"},{"ARG_OF_PERICENTER":"75.3067","ECCENTRICITY":"0.00011920","GP_ID":"189424827","PERIAPSIS":"546.340","CENTER_NAME":"EARTH","MEAN_MOTION_DOT":"0.00006220","MEAN_MOTION_DDOT":"0.0000000000000","TIME_SYSTEM":"UTC","FILE":"3211038","REF_FRAME":"TEME","CLASSIFICATION_TYPE":"U","BSTAR":"0.00043592000000","NORAD_CAT_ID":"48595","INCLINATION":"53.0565","RCS_SIZE":"LARGE","SEMIMAJOR_AXIS":"6925.300","OBJECT_NAME":"STARLINK-2252","PERIOD":"95.591","ELEMENT_SET_NO":"999","MEAN_ANOMALY":"284.8054","EPOCH":"2021-11-10T17:09:05.391072","LAUNCH_DATE":"2021-05-15","MEAN_ELEMENT_THEORY":"SGP4","COUNTRY_CODE":"US","OBJECT_ID":"2021-041AU","TLE_LINE2":"2 48595  53.0565  34.4001 0001192  75.3067 284.8054 15.06415719 28190","MEAN_MOTION":"15.06415719","RA_OF_ASC_NODE":"34.4001","APOAPSIS":"547.991","DECAY_DATE":null,"EPHEMERIS_TYPE":"0","OBJECT_TYPE":"PAYLOAD","TLE_LINE1":"1 48595U 21041AU  21314.71464573  .00006220  00000-0  43592-3 0  9993","REV_AT_EPOCH":"2819","SITE":"AFETR"},{"ELEMENT_SET_NO":"999","PERIOD":"95.591","OBJECT_NAME":"STARLINK-2253","MEAN_ANOMALY":"288.3127","RCS_SIZE":"LARGE","NORAD_CAT_ID":"48596","INCLINATION":"53.0561","SEMIMAJOR_AXIS":"6925.307","BSTAR":"0.00011587000000","FILE":"3211038","CLASSIFICATION_TYPE":"U","REF_FRAME":"TEME","TIME_SYSTEM":"UTC","PERIAPSIS":"546.000","MEAN_MOTION_DOT":"0.00001445","CENTER_NAME":"EARTH","GP_ID":"189425526","MEAN_MOTION_DDOT":"0.0000000000000","ECCENTRICITY":"0.00016920","ARG_OF_PERICENTER":"71.8046","TLE_LINE1":"1 48596U 21041AV  21314.73675007  .00001445  00000-0  11587-3 0  9995","REV_AT_EPOCH":"2738","OBJECT_TYPE":"PAYLOAD","SITE":"AFETR","DECAY_DATE":null,"APOAPSIS":"548.343","EPHEMERIS_TYPE":"0","RA_OF_ASC_NODE":"34.2997","COUNTRY_CODE":"US","OBJECT_ID":"2021-041AV","TLE_LINE2":"2 48596  53.0561  34.2997 0001692  71.8046 288.3127 15.06413689 27386","MEAN_MOTION":"15.06413689","LAUNCH_DATE":"2021-05-15","EPOCH":"2021-11-10T17:40:55.206048","MEAN_ELEMENT_THEORY":"SGP4"},{"SEMIMAJOR_AXIS":"6925.328","RCS_SIZE":"LARGE","NORAD_CAT_ID":"48597","INCLINATION":"53.0564","MEAN_ANOMALY":"283.1485","PERIOD":"95.592","ELEMENT_SET_NO":"999","OBJECT_NAME":"STARLINK-2255","CLASSIFICATION_TYPE":"U","REF_FRAME":"TEME","FILE":"3211038","BSTAR":"0.00037591000000","MEAN_MOTION_DDOT":"0.0000000000000","PERIAPSIS":"546.308","CENTER_NAME":"EARTH","MEAN_MOTION_DOT":"0.00005323","GP_ID":"189425981","TIME_SYSTEM":"UTC","ARG_OF_PERICENTER":"76.9646","ECCENTRICITY":"0.00012780","SITE":"AFETR","REV_AT_EPOCH":"2815","TLE_LINE1":"1 48597U 21041AW  21314.47875751  .00005323  00000-0  37591-3 0  9997","OBJECT_TYPE":"PAYLOAD","RA_OF_ASC_NODE":"35.4642","EPHEMERIS_TYPE":"0","DECAY_DATE":null,"APOAPSIS":"548.078","MEAN_ELEMENT_THEORY":"SGP4","LAUNCH_DATE":"2021-05-15","EPOCH":"2021-11-10T11:29:24.648864","TLE_LINE2":"2 48597  53.0564  35.4642 0001278  76.9646 283.1485 15.06406632 28158","OBJECT_ID":"2021-041AW","MEAN_MOTION":"15.06406632","COUNTRY_CODE":"US"},{"ARG_OF_PERICENTER":"73.9525","ECCENTRICITY":"0.00012740","GP_ID":"189426099","PERIAPSIS":"546.323","CENTER_NAME":"EARTH","MEAN_MOTION_DOT":"0.00002009","MEAN_MOTION_DDOT":"0.0000000000000","TIME_SYSTEM":"UTC","FILE":"3211038","REF_FRAME":"TEME","CLASSIFICATION_TYPE":"U","BSTAR":"0.00015369000000","INCLINATION":"53.0577","NORAD_CAT_ID":"48598","RCS_SIZE":"LARGE","SEMIMAJOR_AXIS":"6925.340","OBJECT_NAME":"STARLINK-2256","ELEMENT_SET_NO":"999","PERIOD":"95.592","MEAN_ANOMALY":"286.1604","EPOCH":"2021-11-10T17:56:49.671168","LAUNCH_DATE":"2021-05-15","MEAN_ELEMENT_THEORY":"SGP4","COUNTRY_CODE":"US","MEAN_MOTION":"15.06402709","TLE_LINE2":"2 48598  53.0577  34.2579 0001274  73.9525 286.1604 15.06402709 27389","OBJECT_ID":"2021-041AX","RA_OF_ASC_NODE":"34.2579","APOAPSIS":"548.088","DECAY_DATE":null,"EPHEMERIS_TYPE":"0","OBJECT_TYPE":"PAYLOAD","REV_AT_EPOCH":"2738","TLE_LINE1":"1 48598U 21041AX  21314.74779712  .00002009  00000-0  15369-3 0  9995","SITE":"AFETR"},{"BSTAR":"0.00045846000000","FILE":"3211038","REF_FRAME":"TEME","CLASSIFICATION_TYPE":"U","OBJECT_NAME":"STARLINK-2274","PERIOD":"95.591","ELEMENT_SET_NO":"999","MEAN_ANOMALY":"293.2305","NORAD_CAT_ID":"48599","INCLINATION":"53.0556","RCS_SIZE":"LARGE","SEMIMAJOR_AXIS":"6925.312","ECCENTRICITY":"0.00011490","ARG_OF_PERICENTER":"66.8805","TIME_SYSTEM":"UTC","GP_ID":"189426236","PERIAPSIS":"546.382","MEAN_MOTION_DOT":"0.00006556","CENTER_NAME":"EARTH","MEAN_MOTION_DDOT":"0.0000000000000","APOAPSIS":"547.973","DECAY_DATE":null,"EPHEMERIS_TYPE":"0","RA_OF_ASC_NODE":"10.0163","OBJECT_TYPE":"PAYLOAD","REV_AT_EPOCH":"2852","TLE_LINE1":"1 48599U 21041AY  21314.57505257  .00006556  00000-0  45846-3 0  9992","SITE":"AFETR","COUNTRY_CODE":"US","TLE_LINE2":"2 48599  53.0556  10.0163 0001149  66.8805 293.2305 15.06411809 28526","MEAN_MOTION":"15.06411809","OBJECT_ID":"2021-041AY","EPOCH":"2021-11-10T13:48:04.542048","LAUNCH_DATE":"2021-05-15","MEAN_ELEMENT_THEORY":"SGP4"},{"APOAPSIS":"548.079","DECAY_DATE":null,"EPHEMERIS_TYPE":"0","RA_OF_ASC_NODE":"24.8576","OBJECT_TYPE":"PAYLOAD","TLE_LINE1":"1 48600U 21041AZ  21314.61234929  .00004473  00000-0  31881-3 0  9995","REV_AT_EPOCH":"2831","SITE":"AFETR","COUNTRY_CODE":"US","OBJECT_ID":"2021-041AZ","TLE_LINE2":"2 48600  53.0533  24.8576 0001330  70.0752 290.0380 15.06418230 28315","MEAN_MOTION":"15.06418230","EPOCH":"2021-11-10T14:41:46.978656","LAUNCH_DATE":"2021-05-15","MEAN_ELEMENT_THEORY":"SGP4","BSTAR":"0.00031881000000","FILE":"3211038","REF_FRAME":"TEME","CLASSIFICATION_TYPE":"U","OBJECT_NAME":"STARLINK-2275","PERIOD":"95.591","ELEMENT_SET_NO":"999","MEAN_ANOMALY":"290.0380","INCLINATION":"53.0533","NORAD_CAT_ID":"48600","RCS_SIZE":"LARGE","SEMIMAJOR_AXIS":"6925.293","ECCENTRICITY":"0.00013300","ARG_OF_PERICENTER":"70.0752","TIME_SYSTEM":"UTC","GP_ID":"189425905","CENTER_NAME":"EARTH","PERIAPSIS":"546.237","MEAN_MOTION_DOT":"0.00004473","MEAN_MOTION_DDOT":"0.0000000000000"},{"RA_OF_ASC_NODE":"9.6295","EPHEMERIS_TYPE":"0","DECAY_DATE":null,"APOAPSIS":"548.078","SITE":"AFETR","TLE_LINE1":"1 48602U 21041BB  21314.67454929  .00005296  00000-0  37394-3 0  9996","REV_AT_EPOCH":"2852","OBJECT_TYPE":"PAYLOAD","MEAN_ELEMENT_THEORY":"SGP4","LAUNCH_DATE":"2021-05-15","EPOCH":"2021-11-10T16:11:21.058656","TLE_LINE2":"2 48602  53.0417   9.6295 0001344  79.8816 280.2325 15.06421632 28523","MEAN_MOTION":"15.06421632","OBJECT_ID":"2021-041BB","COUNTRY_CODE":"US","CLASSIFICATION_TYPE":"U","REF_FRAME":"TEME","FILE":"3211038","BSTAR":"0.00037394000000","SEMIMAJOR_AXIS":"6925.282","RCS_SIZE":"LARGE","NORAD_CAT_ID":"48602","INCLINATION":"53.0417","MEAN_ANOMALY":"280.2325","PERIOD":"95.591","ELEMENT_SET_NO":"999","OBJECT_NAME":"STARLINK-2713","ARG_OF_PERICENTER":"79.8816","ECCENTRICITY":"0.00013440","MEAN_MOTION_DDOT":"0.0000000000000","PERIAPSIS":"546.217","MEAN_MOTION_DOT":"0.00005296","CENTER_NAME":"EARTH","GP_ID":"189425603","TIME_SYSTEM":"UTC"}];
